[{"OBJECT_NAME":"STARLINK-1152","OBJECT_ID":"2020-006BE","EPOCH":"2026-03-09T14:21:13.159008","MEAN_MOTION":15.38522546,"ECCENTRICITY":0.0003727,"INCLINATION":53.0397,"RA_OF_ASC_NODE":206.9193,"ARG_OF_PERICENTER":207.5385,"MEAN_ANOMALY":152.5421,"EPHEMERIS_TYPE":0,"CLASSIFICATION_TYPE":"U","NORAD_CAT_ID":45096,"ELEMENT_SET_NO":999,"REV_AT_EPOCH":33757,"BSTAR":0.0020481,"MEAN_MOTION_DOT":0.00079483,"MEAN_MOTION_DDOT":0},{"OBJECT_NAME":"STARLINK-2487","OBJECT_ID":"2021-027BE","EPOCH":"2026-03-10T00:00:02.999808","MEAN_MOTION":15.1061942,"ECCENTRICITY":0.00021427,"INCLINATION":53.0713,"RA_OF_ASC_NODE":150.193,"ARG_OF_PERICENTER":82.213,"MEAN_ANOMALY":69.5138,"EPHEMERIS_TYPE":0,"CLASSIFICATION_TYPE":"U","NORAD_CAT_ID":48144,"ELEMENT_SET_NO":999,"REV_AT_EPOCH":574,"BSTAR":0.083657273,"MEAN_MOTION_DOT":0.01515342,"MEAN_MOTION_DDOT":0}]
